[{"OBJECT_NAME":"ONEWEB-0291","OBJECT_ID":"2021-075G","EPOCH":"2026-05-22T02:48:41.392800","MEAN_MOTION":13.17678348,"ECCENTRICITY":0.0001833,"INCLINATION":87.9184,"RA_OF_ASC_NODE":11.0442,"ARG_OF_PERICENTER":90.965,"MEAN_ANOMALY":269.1692,"EPHEMERIS_TYPE":0,"CLASSIFICATION_TYPE":"U","NORAD_CAT_ID":49081,"ELEMENT_SET_NO":999,"REV_AT_EPOCH":23017,"BSTAR":0.011554000000000002,"MEAN_MOTION_DOT":4.503e-05,"MEAN_MOTION_DDOT":0.0},{"OBJECT_NAME":"ONEWEB-0293","OBJECT_ID":"2021-075H","EPOCH":"2026-05-22T01:35:49.514784","MEAN_MOTION":13.17650878,"ECCENTRICITY":0.0001677,"INCLINATION":87.9166,"RA_OF_ASC_NODE":11.0592,"ARG_OF_PERICENTER":84.6553,"MEAN_ANOMALY":275.477,"EPHEMERIS_TYPE":0,"CLASSIFICATION_TYPE":"U","NORAD_CAT_ID":49082,"ELEMENT_SET_NO":999,"REV_AT_EPOCH":23019,"BSTAR":-0.00058143,"MEAN_MOTION_DOT":-2.13e-06,"MEAN_MOTION_DDOT":0.0},{"OBJECT_NAME":"ONEWEB-0294","OBJECT_ID":"2021-075J","EPOCH":"2026-05-22T02:31:03.635616","MEAN_MOTION":13.12443356,"ECCENTRICITY":0.0001463,"INCLINATION":87.896,"RA_OF_ASC_NODE":355.8454,"ARG_OF_PERICENTER":88.9902,"MEAN_ANOMALY":271.1394,"EPHEMERIS_TYPE":0,"CLASSIFICATION_TYPE":"U","NORAD_CAT_ID":49083,"ELEMENT_SET_NO":999,"REV_AT_EPOCH":23115,"BSTAR":0.00050128,"MEAN_MOTION_DOT":1.93e-06,"MEAN_MOTION_DDOT":0.0},{"OBJECT_NAME":"ONEWEB-0295","OBJECT_ID":"2021-075K","EPOCH":"2026-05-22T01:34:37.911648","MEAN_MOTION":13.1765128,"ECCENTRICITY":0.0001923,"INCLINATION":87.9155,"RA_OF_ASC_NODE":11.0642,"ARG_OF_PERICENTER":94.4593,"MEAN_ANOMALY":265.6759,"EPHEMERIS_TYPE":0,"CLASSIFICATION_TYPE":"U","NORAD_CAT_ID":49084,"ELEMENT_SET_NO":999,"REV_AT_EPOCH":23015,"BSTAR":4.7215e-05,"MEAN_MOTION_DOT":3.1e-07,"MEAN_MOTION_DDOT":0.0},{"OBJECT_NAME":"ONEWEB-0296","OBJECT_ID":"2021-075L","EPOCH":"2026-05-22T02:01:45.545952","MEAN_MOTION":13.12441796,"ECCENTRICITY":0.0001826,"INCLINATION":87.8969,"RA_OF_ASC_NODE":355.8555,"ARG_OF_PERICENTER":96.8739,"MEAN_ANOMALY":263.2597,"EPHEMERIS_TYPE":0,"CLASSIFICATION_TYPE":"U","NORAD_CAT_ID":49085,"ELEMENT_SET_NO":999,"REV_AT_EPOCH":23115,"BSTAR":-0.0010256,"MEAN_MOTION_DOT":-3.56e-06,"MEAN_MOTION_DDOT":0.0},{"OBJECT_NAME":"ONEWEB-0297","OBJECT_ID":"2021-075M","EPOCH":"2026-05-22T02:45:41.762880","MEAN_MOTION":13.12442146,"ECCENTRICITY":0.000188,"INCLINATION":87.8951,"RA_OF_ASC_NODE":355.8644,"ARG_OF_PERICENTER":88.885,"MEAN_ANOMALY":271.2494,"EPHEMERIS_TYPE":0,"CLASSIFICATION_TYPE":"U","NORAD_CAT_ID":49086,"ELEMENT_SET_NO":999,"REV_AT_EPOCH":23176,"BSTAR":0.0012209,"MEAN_MOTION_DOT":4.52e-06,"MEAN_MOTION_DDOT":0.0},{"OBJECT_NAME":"ONEWEB-0298","OBJECT_ID":"2021-075N","EPOCH":"2026-05-22T03:30:14.453568","MEAN_MOTION":13.17646968,"ECCENTRICITY":0.0002014,"INCLINATION":87.9155,"RA_OF_ASC_NODE":11.0459,"ARG_OF_PERICENTER":84.4197,"MEAN_ANOMALY":275.7164,"EPHEMERIS_TYPE":0,"CLASSIFICATION_TYPE":"U","NORAD_CAT_ID":49087,"ELEMENT_SET_NO":999,"REV_AT_EPOCH":23019,"BSTAR":0.00013336999999999998,"MEAN_MOTION_DOT":6.5e-07,"MEAN_MOTION_DDOT":0.0},{"OBJECT_NAME":"ONEWEB-0299","OBJECT_ID":"2021-075P","EPOCH":"2026-05-22T03:32:28.974912","MEAN_MOTION":13.17648685,"ECCENTRICITY":0.0001944,"INCLINATION":87.9166,"RA_OF_ASC_NODE":11.0235,"ARG_OF_PERICENTER":87.9183,"MEAN_ANOMALY":272.2171,"EPHEMERIS_TYPE":0,"CLASSIFICATION_TYPE":"U","NORAD_CAT_ID":49088,"ELEMENT_SET_NO":999,"REV_AT_EPOCH":23017,"BSTAR":-8.2322e-05,"MEAN_MOTION_DOT":-1.9e-07,"MEAN_MOTION_DDOT":0.0},{"OBJECT_NAME":"ONEWEB-0300","OBJECT_ID":"2021-075Q","EPOCH":"2026-05-22T02:34:43.650624","MEAN_MOTION":13.12444033,"ECCENTRICITY":0.0002181,"INCLINATION":87.8964,"RA_OF_ASC_NODE":355.8422,"ARG_OF_PERICENTER":82.0737,"MEAN_ANOMALY":278.0639,"EPHEMERIS_TYPE":0,"CLASSIFICATION_TYPE":"U","NORAD_CAT_ID":49089,"ELEMENT_SET_NO":999,"REV_AT_EPOCH":23178,"BSTAR":0.00064026,"MEAN_MOTION_DOT":2.43e-06,"MEAN_MOTION_DDOT":0.0},{"OBJECT_NAME":"ONEWEB-0301","OBJECT_ID":"2021-075R","EPOCH":"2026-05-22T02:11:32.804160","MEAN_MOTION":13.12443683,"ECCENTRICITY":0.0002056,"INCLINATION":87.8961,"RA_OF_ASC_NODE":355.8443,"ARG_OF_PERICENTER":79.0062,"MEAN_ANOMALY":281.1298,"EPHEMERIS_TYPE":0,"CLASSIFICATION_TYPE":"U","NORAD_CAT_ID":49090,"ELEMENT_SET_NO":999,"REV_AT_EPOCH":23114,"BSTAR":-0.00083044,"MEAN_MOTION_DOT":-2.86e-06,"MEAN_MOTION_DDOT":0.0},{"OBJECT_NAME":"ONEWEB-0302","OBJECT_ID":"2021-075S","EPOCH":"2026-05-22T01:52:00.320736","MEAN_MOTION":13.12441414,"ECCENTRICITY":0.000154,"INCLINATION":87.8963,"RA_OF_ASC_NODE":355.8577,"ARG_OF_PERICENTER":92.776,"MEAN_ANOMALY":267.3545,"EPHEMERIS_TYPE":0,"CLASSIFICATION_TYPE":"U","NORAD_CAT_ID":49091,"ELEMENT_SET_NO":999,"REV_AT_EPOCH":23112,"BSTAR":-0.00096209,"MEAN_MOTION_DOT":-3.33e-06,"MEAN_MOTION_DDOT":0.0},{"OBJECT_NAME":"ONEWEB-0304","OBJECT_ID":"2021-075T","EPOCH":"2026-05-22T02:56:00.976992","MEAN_MOTION":13.17651155,"ECCENTRICITY":0.0001873,"INCLINATION":87.9157,"RA_OF_ASC_NODE":11.0533,"ARG_OF_PERICENTER":88.7906,"MEAN_ANOMALY":271.344,"EPHEMERIS_TYPE":0,"CLASSIFICATION_TYPE":"U","NORAD_CAT_ID":49092,"ELEMENT_SET_NO":999,"REV_AT_EPOCH":23014,"BSTAR":4.7611e-05,"MEAN_MOTION_DOT":3.1e-07,"MEAN_MOTION_DDOT":0.0},{"OBJECT_NAME":"ONEWEB-0305","OBJECT_ID":"2021-075U","EPOCH":"2026-05-22T02:46:17.567040","MEAN_MOTION":13.17650696,"ECCENTRICITY":0.0002109,"INCLINATION":87.9165,"RA_OF_ASC_NODE":11.0367,"ARG_OF_PERICENTER":93.7841,"MEAN_ANOMALY":266.3532,"EPHEMERIS_TYPE":0,"CLASSIFICATION_TYPE":"U","NORAD_CAT_ID":49093,"ELEMENT_SET_NO":999,"REV_AT_EPOCH":23017,"BSTAR":0.00022852000000000001,"MEAN_MOTION_DOT":1.02e-06,"MEAN_MOTION_DDOT":0.0},{"OBJECT_NAME":"ONEWEB-0308","OBJECT_ID":"2021-075V","EPOCH":"2026-05-22T03:32:01.872960","MEAN_MOTION":13.12440792,"ECCENTRICITY":0.0001804,"INCLINATION":87.8963,"RA_OF_ASC_NODE":355.8367,"ARG_OF_PERICENTER":85.2967,"MEAN_ANOMALY":274.8368,"EPHEMERIS_TYPE":0,"CLASSIFICATION_TYPE":"U","NORAD_CAT_ID":49094,"ELEMENT_SET_NO":999,"REV_AT_EPOCH":23114,"BSTAR":-0.00075695,"MEAN_MOTION_DOT":-2.6e-06,"MEAN_MOTION_DDOT":0.0},{"OBJECT_NAME":"ONEWEB-0309","OBJECT_ID":"2021-075W","EPOCH":"2026-05-22T02:51:10.501920","MEAN_MOTION":13.17645827,"ECCENTRICITY":0.0001413,"INCLINATION":87.9154,"RA_OF_ASC_NODE":11.047,"ARG_OF_PERICENTER":93.3036,"MEAN_ANOMALY":266.8257,"EPHEMERIS_TYPE":0,"CLASSIFICATION_TYPE":"U","NORAD_CAT_ID":49095,"ELEMENT_SET_NO":999,"REV_AT_EPOCH":23014,"BSTAR":0.0020832,"MEAN_MOTION_DOT":8.22e-06,"MEAN_MOTION_DDOT":0.0},{"OBJECT_NAME":"ONEWEB-0310","OBJECT_ID":"2021-075X","EPOCH":"2026-05-22T02:04:12.552960","MEAN_MOTION":13.12442364,"ECCENTRICITY":0.0001789,"INCLINATION":87.8954,"RA_OF_ASC_NODE":355.8725,"ARG_OF_PERICENTER":85.1052,"MEAN_ANOMALY":275.0281,"EPHEMERIS_TYPE":0,"CLASSIFICATION_TYPE":"U","NORAD_CAT_ID":49096,"ELEMENT_SET_NO":999,"REV_AT_EPOCH":23176,"BSTAR":-0.00083993,"MEAN_MOTION_DOT":-2.89e-06,"MEAN_MOTION_DDOT":0.0}]