ONEWEB-0291             
1 49081U 21075G   26142.11714575  .00004503  00000+0  11554-1 0  9991
2 49081  87.9184  11.0442 0001833  90.9650 269.1692 13.17678348230173
ONEWEB-0293             
1 49082U 21075H   26142.06654531 -.00000213  00000+0 -58143-3 0  9994
2 49082  87.9166  11.0592 0001677  84.6553 275.4770 13.17650878230195
ONEWEB-0294             
1 49083U 21075J   26142.10490319  .00000193  00000+0  50128-3 0  9992
2 49083  87.8960 355.8454 0001463  88.9902 271.1394 13.12443356231159
ONEWEB-0295             
1 49084U 21075K   26142.06571657  .00000031  00000+0  47215-4 0  9998
2 49084  87.9155  11.0642 0001923  94.4593 265.6759 13.17651280230150
ONEWEB-0296             
1 49085U 21075L   26142.08455493 -.00000356  00000+0 -10256-2 0  9995
2 49085  87.8969 355.8555 0001826  96.8739 263.2597 13.12441796231154
ONEWEB-0297             
1 49086U 21075M   26142.11506670  .00000452  00000+0  12209-2 0  9999
2 49086  87.8951 355.8644 0001880  88.8850 271.2494 13.12442146231762
ONEWEB-0298             
1 49087U 21075N   26142.14600062  .00000065  00000+0  13337-3 0  9997
2 49087  87.9155  11.0459 0002014  84.4197 275.7164 13.17646968230193
ONEWEB-0299             
1 49088U 21075P   26142.14755758 -.00000019  00000+0 -82322-4 0  9993
2 49088  87.9166  11.0235 0001944  87.9183 272.2171 13.17648685230178
ONEWEB-0300             
1 49089U 21075Q   26142.10744966  .00000243  00000+0  64026-3 0  9996
2 49089  87.8964 355.8422 0002181  82.0737 278.0639 13.12444033231783
ONEWEB-0301             
1 49090U 21075R   26142.09135190 -.00000286  00000+0 -83044-3 0  9999
2 49090  87.8961 355.8443 0002056  79.0062 281.1298 13.12443683231149
ONEWEB-0302             
1 49091U 21075S   26142.07778149 -.00000333  00000+0 -96209-3 0  9995
2 49091  87.8963 355.8577 0001540  92.7760 267.3545 13.12441414231123
ONEWEB-0304             
1 49092U 21075T   26142.12223353  .00000031  00000+0  47611-4 0  9991
2 49092  87.9157  11.0533 0001873  88.7906 271.3440 13.17651155230149
ONEWEB-0305             
1 49093U 21075U   26142.11548110  .00000102  00000+0  22852-3 0  9990
2 49093  87.9165  11.0367 0002109  93.7841 266.3532 13.17650696230179
ONEWEB-0308             
1 49094U 21075V   26142.14724390 -.00000260  00000+0 -75695-3 0  9990
2 49094  87.8963 355.8367 0001804  85.2967 274.8368 13.12440792231148
ONEWEB-0309             
1 49095U 21075W   26142.11887155  .00000822  00000+0  20832-2 0  9991
2 49095  87.9154  11.0470 0001413  93.3036 266.8257 13.17645827230149
ONEWEB-0310             
1 49096U 21075X   26142.08625640 -.00000289  00000+0 -83993-3 0  9994
2 49096  87.8954 355.8725 0001789  85.1052 275.0281 13.12442364231766
